OBJECT_NAME,OBJECT_ID,EPOCH,MEAN_MOTION,ECCENTRICITY,INCLINATION,RA_OF_ASC_NODE,ARG_OF_PERICENTER,MEAN_ANOMALY,EPHEMERIS_TYPE,CLASSIFICATION_TYPE,NORAD_CAT_ID,ELEMENT_SET_NO,REV_AT_EPOCH,BSTAR,MEAN_MOTION_DOT,MEAN_MOTION_DDOT
SL-16 R/B,1996-051B,2026-06-18T20:56:38.668128,14.12446388,.0015612,70.7643,321.0813,334.3620,25.6723,0,U,24298,999,53593,.87582E-4,.113E-5,0
ORBVIEW 2 (SEASTAR),1997-037A,2026-06-18T16:37:34.113216,14.35553849,.0003231,98.8689,336.7534,112.9858,247.1667,0,U,24883,999,52296,.6947E-4,.153E-5,0
SL-16 R/B,1998-043G,2026-06-18T18:23:17.659968,14.26068816,.0010941,98.8364,123.9390,82.2592,277.9829,0,U,25400,999,45339,.31277E-4,.29E-6,0
SL-16 R/B,1998-045B,2026-06-18T17:15:37.736064,14.16202683,.0009315,71.0116,329.1073,239.7939,120.2262,0,U,25407,999,44140,-.77852E-4,-.202E-5,0
ISS (ZARYA),1998-067A,2026-06-18T19:14:58.748640,15.49302471,.0004667,51.6331,292.1003,202.2920,157.7867,0,U,25544,999,57200,.15439E-3,.8155E-4,0
CZ-4B R/B,1999-025C,2026-06-18T20:28:30.738720,14.18283754,.0038014,98.6482,211.6497,54.9846,118.0165,0,U,25732,999,40250,.3254E-4,.25E-6,0
OKEAN-O,1999-039A,2026-06-18T18:24:18.609120,14.80468956,.0001555,97.9316,228.5466,71.5505,288.5876,0,U,25860,999,44934,.6758E-4,.465E-5,0
SL-16 R/B,1999-039B,2026-06-18T17:16:18.814080,14.81846432,.001343,97.9837,228.5783,291.4953,68.4828,0,U,25861,999,45182,.50807E-4,.348E-5,0
DELTA 2 R/B,1999-041E,2026-06-18T12:29:10.945248,14.12017990,.0500843,51.7653,258.4715,285.9575,68.6741,0,U,25876,999,37727,.10168E-3,.395E-5,0
HELIOS 1B,1999-064A,2026-06-18T19:01:12.969408,14.88010150,.0002534,98.1613,74.9788,89.1186,271.0319,0,U,25977,999,70029,.11716E-3,.1017E-4,0
TERRA,1999-068A,2026-06-18T19:29:30.456384,14.61104230,.0001713,97.9456,219.2940,183.9700,311.2446,0,U,25994,999,40984,.69456E-4,.297E-5,0
SL-16 R/B,2000-006B,2026-06-18T14:52:05.644128,14.15834174,.0015604,71.0019,245.6136,20.8396,339.3360,0,U,26070,999,36284,.48842E-4,.48E-6,0
TITAN 4B R/B,2000-047B,2026-06-18T20:21:48.229632,15.10205285,.004582,67.9883,115.8972,285.3275,74.2813,0,U,26474,999,40818,.15369E-3,.2438E-4,0
ENVISAT,2002-009A,2026-06-18T20:09:25.187904,14.39065091,.0001367,98.3835,121.1215,89.0569,288.2463,0,U,27386,999,27372,.32747E-4,.58E-6,0
IDEFIX & ARIANE 42P R/B,2002-021B,2026-06-18T17:42:14.181696,14.31082716,.0010607,98.5942,107.2040,248.8124,111.1925,0,U,27422,999,25847,.78083E-4,.162E-5,0
AQUA,2002-022A,2026-06-18T21:29:11.974272,14.62160251,.0001036,98.4277,139.2122,54.2295,332.3972,0,U,27424,999,28352,.12608E-3,.585E-5,0
CZ-4B R/B,2002-024C,2026-06-18T21:20:24.108288,14.14564561,.005121,98.8699,222.6984,95.5114,77.5035,0,U,27432,999,24354,.31681E-4,.18E-6,0
MIDORI II (ADEOS-II),2002-056A,2026-06-18T17:57:15.954048,14.29350330,.0002188,98.7878,129.0212,74.8968,285.2455,0,U,27597,999,22473,.93276E-4,.192E-5,0
H-2A R/B,2002-056E,2026-06-18T18:09:48.218976,14.33822597,.0069255,98.3312,126.3741,219.8280,203.2996,0,U,27601,999,22859,.65307E-4,.144E-5,0
CZ-4B R/B,2003-049C,2026-06-18T17:51:24.796800,14.55101032,.0046923,98.6896,168.6525,283.7024,75.8950,0,U,28059,999,20129,.60443E-4,.212E-5,0
CZ-2C R/B,2004-012C,2026-06-18T17:51:54.597888,15.79247393,.000953,97.7073,245.5893,277.4742,82.5441,0,U,28222,999,22014,.49042E-3,.88503E-3,0
SL-16 R/B,2004-021B,2026-06-18T20:36:03.479040,14.14607718,.0007208,71.0006,20.1819,252.7436,107.2897,0,U,28353,999,13714,-.86499E-4,-.214E-5,0
CZ-4B R/B,2004-035C,2026-06-18T19:58:34.804992,15.30645334,.0029683,97.3361,202.8874,331.9339,28.0300,0,U,28415,999,19537,.20255E-3,.6002E-4,0
CZ-2C R/B,2004-046B,2026-06-18T17:37:04.810080,14.27026749,.0138561,98.1944,78.4183,215.6589,143.5277,0,U,28480,999,12291,.35096E-4,.53E-6,0
ARIANE 5 R/B,2004-049H,2026-06-18T11:27:30.949056,14.85450517,.0084421,98.2721,341.7800,25.2794,335.2514,0,U,28499,999,16075,.58457E-4,.472E-5,0
CZ-2D R/B,2005-024B,2026-06-18T14:55:28.418880,15.69688139,.0003123,97.3482,189.1217,51.3656,308.7885,0,U,28738,999,15556,.36499E-3,.4327E-3,0
ALOS (DAICHI),2006-002A,2026-06-18T19:00:42.794208,14.70053116,.0001389,98.1324,125.3545,56.6565,303.4774,0,U,28931,999,8833,.14291E-3,.808E-5,0
H-2A R/B,2006-002B,2026-06-18T12:06:42.363936,15.18074418,.0049598,98.2570,325.4523,257.6803,101.8873,0,U,28932,999,10972,.27581E-3,.5718E-4,0
RESURS-DK 1,2006-021A,2026-06-18T18:05:49.245216,15.13223425,.0006884,69.9330,335.4973,291.0753,68.9676,0,U,29228,999,10281,.98909E-4,.1653E-4,0
CZ-4B R/B,2006-046C,2026-06-18T20:02:33.237024,15.17793089,.0030966,97.5448,214.4372,276.7122,83.0588,0,U,29507,999,7538,.14105E-3,.2814E-4,0
CZ-2C R/B,2007-010B,2026-06-18T12:56:39.213600,14.20276404,.0058936,98.4101,277.8240,2.1920,357.9505,0,U,31114,999,99403,.47569E-4,.62E-6,0
