SL-16 R/B               
1 24298U 96051B   26169.87266977  .00000113  00000+0  87582-4 0  9990
2 24298  70.7643 321.0813 0015612 334.3620  25.6723 14.12446388535939
ORBVIEW 2 (SEASTAR)     
1 24883U 97037A   26169.69275594  .00000153  00000+0  69470-4 0  9990
2 24883  98.8689 336.7534 0003231 112.9858 247.1667 14.35553849522963
SL-16 R/B               
1 25400U 98043G   26169.76617662  .00000029  00000+0  31277-4 0  9994
2 25400  98.8364 123.9390 0010941  82.2592 277.9829 14.26068816453391
SL-16 R/B               
1 25407U 98045B   26169.71918676 -.00000202  00000+0 -77852-4 0  9991
2 25407  71.0116 329.1073 0009315 239.7939 120.2262 14.16202683441402
ISS (ZARYA)             
1 25544U 98067A   26169.80206885  .00008155  00000+0  15439-3 0  9994
2 25544  51.6331 292.1003 0004667 202.2920 157.7867 15.49302471572009
CZ-4B R/B               
1 25732U 99025C   26169.85313355  .00000025  00000+0  32540-4 0  9995
2 25732  98.6482 211.6497 0038014  54.9846 118.0165 14.18283754402506
OKEAN-O                 
1 25860U 99039A   26169.76688205  .00000465  00000+0  67580-4 0  9991
2 25860  97.9316 228.5466 0001555  71.5505 288.5876 14.80468956449349
SL-16 R/B               
1 25861U 99039B   26169.71966220  .00000348  00000+0  50807-4 0  9997
2 25861  97.9837 228.5783 0013430 291.4953  68.4828 14.81846432451823
DELTA 2 R/B             
1 25876U 99041E   26169.52026557  .00000395  00000+0  10168-3 0  9992
2 25876  51.7653 258.4715 0500843 285.9575  68.6741 14.12017990377272
HELIOS 1B               
1 25977U 99064A   26169.79251122  .00001017  00000+0  11716-3 0  9998
2 25977  98.1613  74.9788 0002534  89.1186 271.0319 14.88010150700299
TERRA                   
1 25994U 99068A   26169.81215806  .00000297  00000+0  69456-4 0  9997
2 25994  97.9456 219.2940 0001713 183.9700 311.2446 14.61104230409846
SL-16 R/B               
1 26070U 00006B   26169.61950977  .00000048  00000+0  48842-4 0  9990
2 26070  71.0019 245.6136 0015604  20.8396 339.3360 14.15834174362844
TITAN 4B R/B            
1 26474U 00047B   26169.84847488  .00002438  00000+0  15369-3 0  9992
2 26474  67.9883 115.8972 0045820 285.3275  74.2813 15.10205285408185
ENVISAT                 
1 27386U 02009A   26169.83987486  .00000058  00000+0  32747-4 0  9993
2 27386  98.3835 121.1215 0001367  89.0569 288.2463 14.39065091273723
IDEFIX & ARIANE 42P R/B 
1 27422U 02021B   26169.73766414  .00000162  00000+0  78083-4 0  9992
2 27422  98.5942 107.2040 0010607 248.8124 111.1925 14.31082716258472
AQUA                    
1 27424U 02022A   26169.89527748  .00000585  00000+0  12608-3 0  9996
2 27424  98.4277 139.2122 0001036  54.2295 332.3972 14.62160251283522
CZ-4B R/B               
1 27432U 02024C   26169.88916792  .00000018  00000+0  31681-4 0  9991
2 27432  98.8699 222.6984 0051210  95.5114  77.5035 14.14564561243548
MIDORI II (ADEOS-II)    
1 27597U 02056A   26169.74810132  .00000192  00000+0  93276-4 0  9995
2 27597  98.7878 129.0212 0002188  74.8968 285.2455 14.29350330224736
H-2A R/B                
1 27601U 02056E   26169.75680809  .00000144  00000+0  65307-4 0  9999
2 27601  98.3312 126.3741 0069255 219.8280 203.2996 14.33822597228596
CZ-4B R/B               
1 28059U 03049C   26169.74403700  .00000212  00000+0  60443-4 0  9994
2 28059  98.6896 168.6525 0046923 283.7024  75.8950 14.55101032201295
CZ-2C R/B               
1 28222U 04012C   26169.74438192  .00088503  00000+0  49042-3 0  9990
2 28222  97.7073 245.5893 0009530 277.4742  82.5441 15.79247393220140
SL-16 R/B               
1 28353U 04021B   26169.85837360 -.00000214  00000+0 -86499-4 0  9990
2 28353  71.0006  20.1819 0007208 252.7436 107.2897 14.14607718137143
CZ-4B R/B               
1 28415U 04035C   26169.83234728  .00006002  00000+0  20255-3 0  9997
2 28415  97.3361 202.8874 0029683 331.9339  28.0300 15.30645334195373
CZ-2C R/B               
1 28480U 04046B   26169.73408345  .00000053  00000+0  35096-4 0  9998
2 28480  98.1944  78.4183 0138561 215.6589 143.5277 14.27026749122916
ARIANE 5 R/B            
1 28499U 04049H   26169.47744154  .00000472  00000+0  58457-4 0  9994
2 28499  98.2721 341.7800 0084421  25.2794 335.2514 14.85450517160756
CZ-2D R/B               
1 28738U 05024B   26169.62185670  .00043270  00000+0  36499-3 0  9997
2 28738  97.3482 189.1217 0003123  51.3656 308.7885 15.69688139155564
ALOS (DAICHI)           
1 28931U 06002A   26169.79216197  .00000808  00000+0  14291-3 0  9992
2 28931  98.1324 125.3545 0001389  56.6565 303.4774 14.70053116 88339
H-2A R/B                
1 28932U 06002B   26169.50465699  .00005718  00000+0  27581-3 0  9996
2 28932  98.2570 325.4523 0049598 257.6803 101.8873 15.18074418109723
RESURS-DK 1             
1 29228U 06021A   26169.75404219  .00001653  00000+0  98909-4 0  9991
2 29228  69.9330 335.4973 0006884 291.0753  68.9676 15.13223425102814
CZ-4B R/B               
1 29507U 06046C   26169.83510691  .00002814  00000+0  14105-3 0  9994
2 29507  97.5448 214.4372 0030966 276.7122  83.0588 15.17793089 75381
CZ-2C R/B               
1 31114U 07010B   26169.53934275  .00000062  00000+0  47569-4 0  9992
2 31114  98.4101 277.8240 0058936   2.1920 357.9505 14.20276404994039
